[{"OBJECT_NAME":"ONEWEB-0023","OBJECT_ID":"2020-008F","EPOCH":"2026-03-09T21:12:18.032256","MEAN_MOTION":13.1037162,"ECCENTRICITY":0.0001667,"INCLINATION":87.8766,"RA_OF_ASC_NODE":56.0361,"ARG_OF_PERICENTER":85.2329,"MEAN_ANOMALY":274.8989,"EPHEMERIS_TYPE":0,"CLASSIFICATION_TYPE":"U","NORAD_CAT_ID":45136,"ELEMENT_SET_NO":999,"REV_AT_EPOCH":29507,"BSTAR":0.0012984382,"MEAN_MOTION_DOT":4.66e-6,"MEAN_MOTION_DDOT":0},{"OBJECT_NAME":"UNKNOWN","OBJECT_ID":"","EPOCH":"2026-03-02T01:11:11.069952","MEAN_MOTION":13.04495247,"ECCENTRICITY":0.00305057,"INCLINATION":90.2299,"RA_OF_ASC_NODE":354.6364,"ARG_OF_PERICENTER":126.8857,"MEAN_ANOMALY":233.507,"EPHEMERIS_TYPE":0,"CLASSIFICATION_TYPE":"U","NORAD_CAT_ID":270176,"ELEMENT_SET_NO":999,"REV_AT_EPOCH":29681,"BSTAR":0.0018302714,"MEAN_MOTION_DOT":5.96e-6,"MEAN_MOTION_DDOT":0}]
